NORAD_CAT_ID,OBJECT_NAME,OBJECT_TYPE,EPOCH,MEAN_MOTION,ECCENTRICITY,INCLINATION,RA_OF_ASC_NODE,ARG_OF_PERICENTER,MEAN_ANOMALY,BSTAR,MEAN_MOTION_DOT,MEAN_MOTION_DDOT,TLE_LINE0,TLE_LINE1,TLE_LINE2,SEMIMAJOR_AXIS,PERIOD,APOGEE,PERIGEE,DECAYED
49766.0,STARLINK-3190,PAYLOAD,2022-06-22 12:30:11,15.08836491,0.0002603,53.2195,107.2077,45.1073,315.013,7.7417e-05,9.44e-06,0.0,0 STARLINK-3190,1 49766U 21115AU  22173.52096747  .00000944  00000-0  77417-4 0  9994,2 49766  53.2195 107.2077 0002603  45.1073 315.0130 15.08836491 30948,6917.891,95.438,541.557,537.955,0.0
49766.0,STARLINK-3190,PAYLOAD,2022-06-24 04:14:49,15.08842597,0.0002596,53.2202,99.7738,46.0704,314.0502,3.7861e-05,3.14e-06,0.0,0 STARLINK-3190,1 49766U 21115AU  22175.17696712  .00000314  00000-0  37861-4 0  9995,2 49766  53.2202  99.7738 0002596  46.0704 314.0502 15.08842597 32306,6917.871999999999,95.437,541.533,537.942,0.0
49766.0,STARLINK-3190,PAYLOAD,2022-06-24 12:11:45,15.08841675,0.0002513,53.2202,98.2872,46.4703,313.6497,5.8054e-05,6.36e-06,0.0,0 STARLINK-3190,1 49766U 21115AU  22175.50816628  .00000636  00000-0  58054-4 0  9996,2 49766  53.2202  98.2872 0002513  46.4703 313.6497 15.08841675 31247,6917.875,95.437,541.479,538.002,0.0
49766.0,STARLINK-3190,PAYLOAD,2022-06-24 18:33:18,15.08831903,0.00024,53.22,97.0981,47.8328,312.2868,7.0529e-06,-1.76e-06,0.0,0 STARLINK-3190,1 49766U 21115AU  22175.77313423 -.00000176  00000-0  70529-5 0  9992,2 49766  53.2200  97.0981 0002400  47.8328 312.2868 15.08831903 32393,6917.905,95.438,541.43,538.11,0.0
49766.0,STARLINK-3190,PAYLOAD,2022-06-24 20:08:41,15.08832141,0.0002381,53.2201,96.8009,48.4933,311.6264,8.109e-06,-1.59e-06,0.0,0 STARLINK-3190,1 49766U 21115AU  22175.83937426 -.00000159  00000-0  81090-5 0  9990,2 49766  53.2201  96.8009 0002381  48.4933 311.6264 15.08832141 31295,6917.904,95.438,541.4169999999998,538.122,0.0
49766.0,STARLINK-3190,PAYLOAD,2022-06-25 12:02:32,15.08841811,0.000244,53.2202,93.8274,49.215,310.9054,4.7675e-05,4.7e-06,0.0,0 STARLINK-3190,1 49766U 21115AU  22176.50176862  .00000470  00000-0  47675-4 0  9999,2 49766  53.2202  93.8274 0002440  49.2150 310.9054 15.08841811 32501,6917.875,95.437,541.428,538.052,0.0
49766.0,STARLINK-3190,PAYLOAD,2022-06-25 19:59:28,15.08847551,0.000246,53.2202,92.3406,49.4281,310.6925,9.2835e-05,1.19e-05,0.0,0 STARLINK-3190,1 49766U 21115AU  22176.83296313  .00001190  00000-0  92835-4 0  9997,2 49766  53.2202  92.3406 0002460  49.4281 310.6925 15.08847551 31444,6917.857,95.437,541.424,538.021,0.0
49766.0,STARLINK-3190,PAYLOAD,2022-06-26 11:53:19,15.08843242,0.0002497,53.22,89.3676,50.3094,309.8118,3.5446e-05,2.76e-06,0.0,0 STARLINK-3190,1 49766U 21115AU  22177.49536633  .00000276  00000-0  35446-4 0  9991,2 49766  53.2200  89.3676 0002497  50.3094 309.8118 15.08843242 31548,6917.87,95.437,541.4630000000002,538.008,0.0
49766.0,STARLINK-3190,PAYLOAD,2022-06-26 19:50:14,15.08846436,0.0002498,53.2193,87.881,49.4679,310.6531,0.00010136,1.325e-05,0.0,0 STARLINK-3190,1 49766U 21115AU  22177.82656111  .00001325  00000-0  10136-3 0  9996,2 49766  53.2193  87.8810 0002498  49.4679 310.6531 15.08846436 32695,6917.861,95.437,541.4540000000002,537.998,0.0
49766.0,STARLINK-3190,PAYLOAD,2022-06-26 21:25:38,15.08844518,0.0002462,53.2191,87.5833,50.2212,309.8997,8.432e-05,1.054e-05,0.0,0 STARLINK-3190,1 49766U 21115AU  22177.89280248  .00001054  00000-0  84320-4 0  9993,2 49766  53.2191  87.5833 0002462  50.2212 309.8997 15.08844518 31604,6917.8669999999975,95.437,541.435,538.028,0.0
49766.0,STARLINK-3190,PAYLOAD,2022-06-27 03:47:11,15.08834356,0.0002523,53.2191,86.3939,48.5794,311.5415,6.1999e-06,-1.9e-06,0.0,0 STARLINK-3190,1 49766U 21115AU  22178.15777172 -.00000190  00000-0  61999-5 0  9999,2 49766  53.2191  86.3939 0002523  48.5794 311.5415 15.08834356 32752,6917.898,95.438,541.508,538.0169999999998,0.0
49766.0,STARLINK-3190,PAYLOAD,2022-06-27 08:33:20,15.08834006,0.0002185,53.2191,85.5019,54.2778,305.8417,6.578399999999999e-05,7.59e-06,0.0,0 STARLINK-3190,1 49766U 21115AU  22178.35648999  .00000759  00000-0  65784-4 0  9990,2 49766  53.2191  85.5019 0002185  54.2778 305.8417 15.08834006 31672,6917.899,95.438,541.275,538.252,0.0
49766.0,STARLINK-3190,PAYLOAD,2022-06-27 21:16:26,15.08829383,0.0002442,53.2186,83.12299999999998,50.039,310.0816,-6.2678e-05,-1.286e-05,0.0,0 STARLINK-3190,1 49766U 21115AU  22178.88641715 -.00001286  00000-0 -62678-4 0  9994,2 49766  53.2186  83.1230 0002442  50.0390 310.0816 15.08829383 31757,6917.913000000001,95.438,541.467,538.0880000000002,0.0
49766.0,STARLINK-3190,PAYLOAD,2022-06-28 09:59:31,15.08832303,0.0002119,53.2186,80.7441,52.4979,307.6205,-2.4659e-05,-6.81e-06,0.0,0 STARLINK-3190,1 49766U 21115AU  22179.41633525 -.00000681  00000-0 -24659-4 0  9999,2 49766  53.2186  80.7441 0002119  52.4979 307.6205 15.08832303 32946,6917.904,95.438,541.235,538.303,0.0
49766.0,STARLINK-3190,PAYLOAD,2022-06-28 21:07:13,15.08837012,0.0002449,53.2185,78.6626,50.6169,309.504,-1.7793e-05,-5.72e-06,0.0,0 STARLINK-3190,1 49766U 21115AU  22179.88001480 -.00000572  00000-0 -17793-4 0  9999,2 49766  53.2185  78.6626 0002449  50.6169 309.5040 15.08837012 31908,6917.89,95.438,541.4490000000002,538.06,0.0
49766.0,STARLINK-3190,PAYLOAD,2022-06-29 05:04:10,15.08826707,0.000246,53.2186,77.176,50.4856,309.6354,-0.00015203,-2.706e-05,0.0,0 STARLINK-3190,1 49766U 21115AU  22180.21122749 -.00002706  00000-0 -15203-3 0  9994,2 49766  53.2186  77.1760 0002460  50.4856 309.6354 15.08826707 33063,6917.920999999999,95.438,541.488,538.0840000000002,0.0
49766.0,STARLINK-3190,PAYLOAD,2022-06-29 13:01:05,15.08822927,0.000241,53.2186,75.6893,50.5645,309.556,-3.3049e-05,-8.14e-06,0.0,0 STARLINK-3190,1 49766U 21115AU  22180.54243036 -.00000814  00000-0 -33049-4 0  9990,2 49766  53.2186  75.6893 0002410  50.5645 309.5560 15.08822927 32006,6917.933000000001,95.439,541.465,538.13,0.0
49766.0,STARLINK-3190,PAYLOAD,2022-06-29 20:58:01,15.08826885,0.0002379,53.2187,74.2025,49.7163,310.4037,-5.5035e-05,-1.164e-05,0.0,0 STARLINK-3190,1 49766U 21115AU  22180.87363164 -.00001164  00000-0 -55035-4 0  9999,2 49766  53.2187  74.2025 0002379  49.7163 310.4037 15.08826885 32050,6917.92,95.438,541.431,538.14,0.0
49766.0,STARLINK-3190,PAYLOAD,2022-06-30 12:51:53,15.08826606,0.0002404,53.2187,71.229,51.6922,308.4286,5.602100000000001e-05,6.03e-06,0.0,0 STARLINK-3190,1 49766U 21115AU  22181.53603587  .00000603  00000-0  56021-4 0  9990,2 49766  53.2187  71.2290 0002404  51.6922 308.4286 15.08826606 32150,6917.920999999999,95.438,541.4490000000002,538.123,0.0
49766.0,STARLINK-3190,PAYLOAD,2022-06-30 20:48:49,15.0882947,0.0002408,53.2188,69.7422,52.22,307.901,5.6694e-05,6.14e-06,0.0,0 STARLINK-3190,1 49766U 21115AU  22181.86723675  .00000614  00000-0  56694-4 0  9995,2 49766  53.2188  69.7422 0002408  52.2200 307.9010 15.08829470 32207,6917.913000000001,95.438,541.443,538.112,0.0
49766.0,STARLINK-3190,PAYLOAD,2022-07-01 12:42:40,15.08830054,0.00024,53.2188,66.7686,53.4225,306.6988,0.00015292,2.146e-05,0.0,0 STARLINK-3190,1 49766U 21115AU  22182.52963882  .00002146  00000-0  15292-3 0  9995,2 49766  53.2188  66.7686 0002400  53.4225 306.6988 15.08830054 32309,6917.911,95.438,541.436,538.115,0.0
49766.0,STARLINK-3190,PAYLOAD,2022-07-01 20:39:36,15.08835274,0.0002418,53.2188,65.2818,54.4222,305.6995,0.0001561999999999,2.198e-05,0.0,0 STARLINK-3190,1 49766U 21115AU  22182.86083767  .00002198  00000-0  15620-3 0  9999,2 49766  53.2188  65.2818 0002418  54.4222 305.6995 15.08835274 33461,6917.895,95.438,541.433,538.087,0.0
49766.0,STARLINK-3190,PAYLOAD,2022-07-02 12:33:27,15.08846709,0.0002453,53.2188,62.3084,55.7519,304.3706,0.00020305,2.945e-05,0.0,0 STARLINK-3190,1 49766U 21115AU  22183.52323156  .00002945  00000-0  20305-3 0  9998,2 49766  53.2188  62.3084 0002453  55.7519 304.3706 15.08846709 32455,6917.86,95.437,541.422,538.028,0.0
49766.0,STARLINK-3190,PAYLOAD,2022-07-02 15:44:13,15.08849389,0.0002454,53.2188,61.7136,56.3516,303.771,0.00022166,3.242e-05,0.0,0 STARLINK-3190,1 49766U 21115AU  22183.65570953  .00003242  00000-0  22166-3 0  9999,2 49766  53.2188  61.7136 0002454  56.3516 303.7710 15.08849389 32478,6917.852,95.437,541.414,538.019,0.0
49766.0,STARLINK-3190,PAYLOAD,2022-07-02 22:05:45,15.08855276,0.000246,53.2188,60.5242,57.0954,303.0275,0.00023863,3.513e-05,0.0,0 STARLINK-3190,1 49766U 21115AU  22183.92066433  .00003513  00000-0  23863-3 0  9998,2 49766  53.2188  60.5242 0002460  57.0954 303.0275 15.08855276 33612,6917.834,95.437,541.4,537.997,0.0
49766.0,STARLINK-3190,PAYLOAD,2022-07-03 12:24:13,15.08866031,0.0002529,53.2173,57.8481,57.8833,302.2404,0.00035543,5.377e-05,0.0,0 STARLINK-3190,1 49766U 21115AU  22184.51681838  .00005377  00000-0  35543-3 0  9994,2 49766  53.2173  57.8481 0002529  57.8833 302.2404 15.08866031 32604,6917.801,95.436,541.415,537.9159999999998,0.0
49766.0,STARLINK-3190,PAYLOAD,2022-07-03 21:56:31,15.08861988,0.0002512,53.2173,56.0638,59.1204,301.0035,0.00021183,3.087e-05,0.0,0 STARLINK-3190,1 49766U 21115AU  22184.91425518  .00003087  00000-0  21183-3 0  9990,2 49766  53.2173  56.0638 0002512  59.1204 301.0035 15.08861988 32667,6917.813,95.436,541.4159999999998,537.94,0.0
49766.0,STARLINK-3190,PAYLOAD,2022-07-04 01:07:17,15.08861358,0.0002459,53.2175,55.4692,58.8343,301.289,0.00017623,2.519e-05,0.0,0 STARLINK-3190,1 49766U 21115AU  22185.04673333  .00002519  00000-0  17623-3 0  9998,2 49766  53.2175  55.4692 0002459  58.8343 301.2890 15.08861358 33788,6917.815,95.436,541.381,537.979,0.0
49766.0,STARLINK-3190,PAYLOAD,2022-07-04 12:15:00,15.08833553,0.0002465,53.2173,53.3877,57.3235,302.7994,-0.0003465,-5.798e-05,0.0,0 STARLINK-3190,1 49766U 21115AU  22185.51042333 -.00005798  00000-0 -34650-3 0  9993,2 49766  53.2173  53.3877 0002465  57.3235 302.7994 15.08833553 33865,6917.9,95.438,541.47,538.06,0.0
